{"fetchedAt":"2026-06-29T18:07:57.252Z","satellites":[{"id":"37846","name":"GSAT0101 (GALILEO-PFM)","constellationId":"galileo","omm":{"OBJECT_NAME":"GSAT0101 (GALILEO-PFM)","OBJECT_ID":"2011-060A","EPOCH":"2026-06-28T13:55:20.058528","MEAN_MOTION":1.70475893,"ECCENTRICITY":0.00027734,"INCLINATION":56.9903,"RA_OF_ASC_NODE":341.4524,"ARG_OF_PERICENTER":56.8947,"MEAN_ANOMALY":303.124,"EPHEMERIS_TYPE":0,"CLASSIFICATION_TYPE":"U","NORAD_CAT_ID":37846,"ELEMENT_SET_NO":999,"REV_AT_EPOCH":9131,"BSTAR":0,"MEAN_MOTION_DOT":-9.1e-7,"MEAN_MOTION_DDOT":0}},{"id":"37847","name":"GSAT0102 (GALILEO-FM2)","constellationId":"galileo","omm":{"OBJECT_NAME":"GSAT0102 (GALILEO-FM2)","OBJECT_ID":"2011-060B","EPOCH":"2026-06-25T14:01:40.769760","MEAN_MOTION":1.70476098,"ECCENTRICITY":0.00028311,"INCLINATION":56.9921,"RA_OF_ASC_NODE":341.5338,"ARG_OF_PERICENTER":14.5912,"MEAN_ANOMALY":352.5946,"EPHEMERIS_TYPE":0,"CLASSIFICATION_TYPE":"U","NORAD_CAT_ID":37847,"ELEMENT_SET_NO":999,"REV_AT_EPOCH":9127,"BSTAR":0,"MEAN_MOTION_DOT":-9.7e-7,"MEAN_MOTION_DDOT":0}},{"id":"38857","name":"GSAT0103 (GALILEO-FM3)","constellationId":"galileo","omm":{"OBJECT_NAME":"GSAT0103 (GALILEO-FM3)","OBJECT_ID":"2012-055A","EPOCH":"2026-06-26T20:39:51.533568","MEAN_MOTION":1.70473558,"ECCENTRICITY":0.00046383,"INCLINATION":55.8122,"RA_OF_ASC_NODE":101.2802,"ARG_OF_PERICENTER":306.6783,"MEAN_ANOMALY":53.253,"EPHEMERIS_TYPE":0,"CLASSIFICATION_TYPE":"U","NORAD_CAT_ID":38857,"ELEMENT_SET_NO":999,"REV_AT_EPOCH":8517,"BSTAR":0,"MEAN_MOTION_DOT":-3.7e-7,"MEAN_MOTION_DDOT":0}},{"id":"40128","name":"GSAT0201 (GALILEO 5)","constellationId":"galileo","omm":{"OBJECT_NAME":"GSAT0201 (GALILEO 5)","OBJECT_ID":"2014-050A","EPOCH":"2026-06-28T04:43:10.013088","MEAN_MOTION":1.85520215,"ECCENTRICITY":0.16761388,"INCLINATION":48.8631,"RA_OF_ASC_NODE":272.9846,"ARG_OF_PERICENTER":179.8176,"MEAN_ANOMALY":180.3141,"EPHEMERIS_TYPE":0,"CLASSIFICATION_TYPE":"U","NORAD_CAT_ID":40128,"ELEMENT_SET_NO":999,"REV_AT_EPOCH":7852,"BSTAR":0,"MEAN_MOTION_DOT":-4.7e-7,"MEAN_MOTION_DDOT":0}},{"id":"40129","name":"GSAT0202 (GALILEO 6)","constellationId":"galileo","omm":{"OBJECT_NAME":"GSAT0202 (GALILEO 6)","OBJECT_ID":"2014-050B","EPOCH":"2026-06-28T10:51:05.410944","MEAN_MOTION":1.85520734,"ECCENTRICITY":0.16774002,"INCLINATION":48.8797,"RA_OF_ASC_NODE":272.0598,"ARG_OF_PERICENTER":180.5593,"MEAN_ANOMALY":179.2896,"EPHEMERIS_TYPE":0,"CLASSIFICATION_TYPE":"U","NORAD_CAT_ID":40129,"ELEMENT_SET_NO":999,"REV_AT_EPOCH":8069,"BSTAR":0,"MEAN_MOTION_DOT":-4.3e-7,"MEAN_MOTION_DDOT":0}},{"id":"40544","name":"GSAT0203 (GALILEO 7)","constellationId":"galileo","omm":{"OBJECT_NAME":"GSAT0203 (GALILEO 7)","OBJECT_ID":"2015-017A","EPOCH":"2026-06-28T08:35:20.684256","MEAN_MOTION":1.70476391,"ECCENTRICITY":0.00021619,"INCLINATION":56.7824,"RA_OF_ASC_NODE":341.2913,"ARG_OF_PERICENTER":267.9865,"MEAN_ANOMALY":91.9808,"EPHEMERIS_TYPE":0,"CLASSIFICATION_TYPE":"U","NORAD_CAT_ID":40544,"ELEMENT_SET_NO":999,"REV_AT_EPOCH":6939,"BSTAR":0,"MEAN_MOTION_DOT":-9.2e-7,"MEAN_MOTION_DDOT":0}},{"id":"40545","name":"GSAT0204 (GALILEO 8)","constellationId":"galileo","omm":{"OBJECT_NAME":"GSAT0204 (GALILEO 8)","OBJECT_ID":"2015-017B","EPOCH":"2026-06-28T00:39:02.769696","MEAN_MOTION":1.70475922,"ECCENTRICITY":0.00022247,"INCLINATION":56.7895,"RA_OF_ASC_NODE":341.3189,"ARG_OF_PERICENTER":238.6181,"MEAN_ANOMALY":121.3527,"EPHEMERIS_TYPE":0,"CLASSIFICATION_TYPE":"U","NORAD_CAT_ID":40545,"ELEMENT_SET_NO":999,"REV_AT_EPOCH":3243,"BSTAR":0,"MEAN_MOTION_DOT":-9.3e-7,"MEAN_MOTION_DDOT":0}},{"id":"40890","name":"GSAT0206 (GALILEO 10)","constellationId":"galileo","omm":{"OBJECT_NAME":"GSAT0206 (GALILEO 10)","OBJECT_ID":"2015-045B","EPOCH":"2026-06-28T14:27:26.505504","MEAN_MOTION":1.70473821,"ECCENTRICITY":0.00018243,"INCLINATION":54.9424,"RA_OF_ASC_NODE":221.289,"ARG_OF_PERICENTER":328.9873,"MEAN_ANOMALY":31.0992,"EPHEMERIS_TYPE":0,"CLASSIFICATION_TYPE":"U","NORAD_CAT_ID":40890,"ELEMENT_SET_NO":999,"REV_AT_EPOCH":6723,"BSTAR":0,"MEAN_MOTION_DOT":7e-7,"MEAN_MOTION_DDOT":0}},{"id":"41174","name":"GSAT0209 (GALILEO 12)","constellationId":"galileo","omm":{"OBJECT_NAME":"GSAT0209 (GALILEO 12)","OBJECT_ID":"2015-079A","EPOCH":"2026-06-28T04:24:50.829696","MEAN_MOTION":1.70473803,"ECCENTRICITY":0.00050857,"INCLINATION":55.8335,"RA_OF_ASC_NODE":100.9603,"ARG_OF_PERICENTER":347.1897,"MEAN_ANOMALY":12.7761,"EPHEMERIS_TYPE":0,"CLASSIFICATION_TYPE":"U","NORAD_CAT_ID":41174,"ELEMENT_SET_NO":999,"REV_AT_EPOCH":6496,"BSTAR":0,"MEAN_MOTION_DOT":-3.3e-7,"MEAN_MOTION_DDOT":0}},{"id":"41175","name":"GSAT0208 (GALILEO 11)","constellationId":"galileo","omm":{"OBJECT_NAME":"GSAT0208 (GALILEO 11)","OBJECT_ID":"2015-079B","EPOCH":"2026-06-26T01:23:22.771680","MEAN_MOTION":1.70473681,"ECCENTRICITY":0.0004595,"INCLINATION":55.8311,"RA_OF_ASC_NODE":101.0154,"ARG_OF_PERICENTER":354.0123,"MEAN_ANOMALY":5.9555,"EPHEMERIS_TYPE":0,"CLASSIFICATION_TYPE":"U","NORAD_CAT_ID":41175,"ELEMENT_SET_NO":999,"REV_AT_EPOCH":6534,"BSTAR":0,"MEAN_MOTION_DOT":-3.9e-7,"MEAN_MOTION_DDOT":0}},{"id":"41549","name":"GSAT0211 (GALILEO 14)","constellationId":"galileo","omm":{"OBJECT_NAME":"GSAT0211 (GALILEO 14)","OBJECT_ID":"2016-030A","EPOCH":"2026-06-27T22:35:47.691744","MEAN_MOTION":1.70474008,"ECCENTRICITY":0.00031164,"INCLINATION":55.0927,"RA_OF_ASC_NODE":221.3989,"ARG_OF_PERICENTER":320.4926,"MEAN_ANOMALY":39.5816,"EPHEMERIS_TYPE":0,"CLASSIFICATION_TYPE":"U","NORAD_CAT_ID":41549,"ELEMENT_SET_NO":999,"REV_AT_EPOCH":6285,"BSTAR":0,"MEAN_MOTION_DOT":6.9e-7,"MEAN_MOTION_DDOT":0}},{"id":"41550","name":"GSAT0210 (GALILEO 13)","constellationId":"galileo","omm":{"OBJECT_NAME":"GSAT0210 (GALILEO 13)","OBJECT_ID":"2016-030B","EPOCH":"2026-06-27T00:36:53.275104","MEAN_MOTION":1.70473957,"ECCENTRICITY":0.00077922,"INCLINATION":55.0912,"RA_OF_ASC_NODE":221.4221,"ARG_OF_PERICENTER":256.422,"MEAN_ANOMALY":103.5859,"EPHEMERIS_TYPE":0,"CLASSIFICATION_TYPE":"U","NORAD_CAT_ID":41550,"ELEMENT_SET_NO":999,"REV_AT_EPOCH":6283,"BSTAR":0,"MEAN_MOTION_DOT":6.5e-7,"MEAN_MOTION_DDOT":0}},{"id":"41859","name":"GSAT0207 (GALILEO 15)","constellationId":"galileo","omm":{"OBJECT_NAME":"GSAT0207 (GALILEO 15)","OBJECT_ID":"2016-069A","EPOCH":"2026-06-26T17:13:02.065728","MEAN_MOTION":1.704737,"ECCENTRICITY":0.00050068,"INCLINATION":55.5042,"RA_OF_ASC_NODE":100.8225,"ARG_OF_PERICENTER":333.0982,"MEAN_ANOMALY":26.85,"EPHEMERIS_TYPE":0,"CLASSIFICATION_TYPE":"U","NORAD_CAT_ID":41859,"ELEMENT_SET_NO":999,"REV_AT_EPOCH":5956,"BSTAR":0,"MEAN_MOTION_DOT":-3.8e-7,"MEAN_MOTION_DDOT":0}},{"id":"41860","name":"GSAT0212 (GALILEO 16)","constellationId":"galileo","omm":{"OBJECT_NAME":"GSAT0212 (GALILEO 16)","OBJECT_ID":"2016-069B","EPOCH":"2026-06-28T07:56:01.576320","MEAN_MOTION":1.70473934,"ECCENTRICITY":0.00044344,"INCLINATION":55.5028,"RA_OF_ASC_NODE":100.773,"ARG_OF_PERICENTER":6.1382,"MEAN_ANOMALY":353.8467,"EPHEMERIS_TYPE":0,"CLASSIFICATION_TYPE":"U","NORAD_CAT_ID":41860,"ELEMENT_SET_NO":999,"REV_AT_EPOCH":5984,"BSTAR":0,"MEAN_MOTION_DOT":-3.3e-7,"MEAN_MOTION_DDOT":0}}]}